STARLINK-36544          
1 67517U 26012AA  26068.04348152  .00036927  00000+0  13437-2 0  9992
2 67517  43.0014 317.9857 0001717 262.4018  97.6639 15.27604450  7662
KUIPER-00226            
1 67785U 26030X   26068.62629313  .00046834  00000+0  15530-2 0  9998
2 67785  51.8814 220.1252 0017713  64.2781 296.0030 15.30655594  5078
